{
  "norad_id": 60327,
  "name": "HULIANWAN GAOGUI-02 (HG-02)",
  "history": [
    {
      "epoch": "2026-03-25T03:39:11.922912",
      "apogee_km": 35823.3189446496,
      "perigee_km": 35753.185276297714,
      "latitude_deg": 0.015934595097841887,
      "longitude_deg": -60.68675232026726,
      "semi_major_axis_km": 42166.38911047366,
      "eccentricity": 0.00083163,
      "inclination_deg": 0.016,
      "raan_deg": 52.416,
      "arg_perigee_deg": 296.025,
      "mean_anomaly_deg": 42.0773,
      "mean_motion_rev_day": 1.00265874
    }
  ]
}